{"type":"FeatureCollection","fixture_geometry":true,"features":[{"type":"Feature","properties":{"ISO_A2":"DE","NAME":"Germany","in_study":true},"geometry":{"type":"Polygon","coordinates":[[[15.333,51.2],[14.227,52.759],[12.69,53.608],[11.374,54.67],[9.55,54.581],[8.059,53.77],[6.564,52.804],[5.642,51.2],[7.033,49.79],[7.684,48.227],[9.429,47.366],[11.281,48.079],[12.785,48.69],[13.846,49.798],[15.333,51.2]]]}},{"type":"Feature","properties":{"ISO_A2":"FR","NAME":"France","in_study":true},"geometry":{"type":"Polygon","coordinates":[[[7.515,46.7],[6.609,48.3],[5.189,49.661],[3.167,51.05],[0.243,51.021],[-1.783,49.657],[-3.755,48.478],[-5.387,46.7],[-3.538,44.993],[-1.901,43.644],[0.489,43.109],[2.994,42.864],[5.351,43.601],[7.053,44.955],[7.515,46.7]]]}},{"type":"Feature","properties":{"ISO_A2":"NL","NAME":"Netherlands","in_study":true},"geometry":{"type":"Polygon","coordinates":[[[6.989,52.15],[6.814,52.668],[6.292,53.033],[5.716,53.446],[4.901,53.394],[4.199,53.131],[3.494,52.768],[3.351,52.15],[3.686,51.598],[4.309,51.267],[4.882,50.85],[5.761,50.716],[6.418,51.154],[7.17,51.51],[6.989,52.15]]]}},{"type":"Feature","properties":{"ISO_A2":"BE","NAME":"Belgium","in_study":true},"geometry":{"type":"Polygon","coordinates":[[[6.556,50.5],[6.255,50.946],[5.74,51.33],[4.887,51.481],[4.043,51.415],[3.407,51.171],[2.946,50.871],[2.518,50.5],[2.832,50.1],[3.143,49.66],[4.079,49.666],[4.825,49.657],[5.694,49.7],[6.136,50.084],[6.556,50.5]]]}},{"type":"Feature","properties":{"ISO_A2":"CH","NAME":"Switzerland","in_study":true},"geometry":{"type":"Polygon","coordinates":[[[10.06,46.8],[10.034,47.184],[9.702,47.619],[8.692,47.738],[7.783,47.594],[7.077,47.412],[6.567,47.142],[5.972,46.8],[6.163,46.374],[6.8,46.037],[7.663,45.777],[8.643,45.956],[9.717,45.973],[10.159,46.39],[10.06,46.8]]]}},{"type":"Feature","properties":{"ISO_A2":"AT","NAME":"Austria","in_study":true},"geometry":{"type":"Polygon","coordinates":[[[16.637,47.7],[16.554,48.221],[15.422,48.577],[14.252,49.034],[12.44,49.046],[10.822,48.77],[9.482,48.329],[9.686,47.7],[10.197,47.187],[11.387,46.869],[12.541,46.503],[14.297,46.299],[15.404,46.83],[16.497,47.188],[16.637,47.7]]]}},{"type":"Feature","properties":{"ISO_A2":"CZ","NAME":"Czechia","in_study":true},"geometry":{"type":"Polygon","coordinates":[[[18.495,49.8],[18.444,50.342],[17.653,50.832],[16.312,51.16],[14.903,50.8],[13.19,50.908],[12.219,50.404],[12.791,49.8],[12.626,49.271],[13.697,48.935],[14.827,48.672],[16.298,48.463],[17.38,48.899],[18.102,49.321],[18.495,49.8]]]}},{"type":"Feature","properties":{"ISO_A2":"PL","NAME":"Poland","in_study":true},"geometry":{"type":"Polygon","coordinates":[[[23.874,51.95],[24.08,53.337],[22.266,54.232],[20.372,55.076],[17.895,55.162],[16.43,53.942],[14.104,53.369],[15.047,51.95],[14.567,50.661],[15.972,49.622],[18.053,49.141],[20.079,49.572],[21.683,50.095],[22.817,50.918],[23.874,51.95]]]}},{"type":"Feature","properties":{"ISO_A2":"ES","NAME":"Spain","in_study":false},"geometry":{"type":"Polygon","coordinates":[[[2.713,39.9],[1.623,41.278],[1.065,43.055],[-1.496,43.98],[-4.224,43.219],[-6.331,42.486],[-8.499,41.539],[-8.279,39.9],[-9.037,38.1],[-6.783,36.963],[-4.562,35.665],[-1.714,36.413],[1.206,36.635],[1.622,38.522],[2.713,39.9]]]}},{"type":"Feature","properties":{"ISO_A2":"PT","NAME":"Portugal","in_study":false},"geometry":{"type":"Polygon","coordinates":[[[-6.501,39.55],[-6.569,40.503],[-6.74,41.702],[-7.501,41.912],[-8.224,42.084],[-8.673,41.146],[-9.165,40.528],[-9.355,39.55],[-9.486,38.332],[-8.801,37.706],[-8.244,36.88],[-7.469,36.969],[-6.959,37.824],[-6.625,38.638],[-6.501,39.55]]]}},{"type":"Feature","properties":{"ISO_A2":"IT","NAME":"Italy","in_study":false},"geometry":{"type":"Polygon","coordinates":[[[18.786,41.85],[17.914,44.129],[15.496,45.109],[14.003,47.467],[11.266,46.814],[9.449,45.281],[8.128,43.729],[7.62,41.85],[6.714,39.37],[8.412,37.271],[11.418,37.475],[13.682,37.473],[16.066,37.959],[17.257,39.85],[18.786,41.85]]]}},{"type":"Feature","properties":{"ISO_A2":"DK","NAME":"Denmark","in_study":false},"geometry":{"type":"Polygon","coordinates":[[[12.959,56.2],[12.493,56.901],[11.926,57.531],[10.841,57.543],[9.846,57.889],[8.922,57.49],[8.302,56.903],[8.562,56.2],[8.659,55.617],[8.876,54.871],[9.921,54.74],[10.924,54.602],[11.867,54.92],[12.069,55.641],[12.959,56.2]]]}},{"type":"Feature","properties":{"ISO_A2":"LU","NAME":"Luxembourg","in_study":false},"geometry":{"type":"Polygon","coordinates":[[[6.425,49.8],[6.397,49.943],[6.304,50.055],[6.176,50.134],[6.012,50.186],[5.905,50.045],[5.702,49.992],[5.685,49.8],[5.758,49.635],[5.871,49.513],[6.026,49.477],[6.194,49.387],[6.349,49.488],[6.49,49.612],[6.425,49.8]]]}},{"type":"Feature","properties":{"ISO_A2":"GB","NAME":"United Kingdom","in_study":false},"geometry":{"type":"Polygon","coordinates":[[[1.291,54.35],[0.709,55.859],[0.164,57.517],[-1.273,58.392],[-3.037,58.931],[-4.03,57.05],[-5.018,55.918],[-5.408,54.35],[-5.986,52.263],[-4.219,51.387],[-2.977,50.062],[-1.295,50.416],[0.212,51.116],[0.926,52.725],[1.291,54.35]]]}},{"type":"Feature","properties":{"ISO_A2":"IE","NAME":"Ireland","in_study":false},"geometry":{"type":"Polygon","coordinates":[[[-6.162,53.4],[-6.585,54.113],[-6.931,54.87],[-7.732,55.418],[-8.717,55.217],[-9.506,54.8],[-10.284,54.27],[-10.211,53.4],[-10.086,52.614],[-9.558,51.942],[-8.694,51.67],[-7.796,51.632],[-6.993,51.999],[-6.573,52.682],[-6.162,53.4]]]}},{"type":"Feature","properties":{"ISO_A2":"SK","NAME":"Slovakia","in_study":false},"geometry":{"type":"Polygon","coordinates":[[[22.842,48.65],[21.817,48.984],[21.5,49.389],[20.262,49.457],[19.016,49.631],[18.013,49.343],[16.909,49.09],[17.415,48.65],[17.138,48.246],[17.789,47.865],[18.982,47.619],[20.229,47.89],[21.277,48.002],[22.204,48.255],[22.842,48.65]]]}},{"type":"Feature","properties":{"ISO_A2":"HU","NAME":"Hungary","in_study":false},"geometry":{"type":"Polygon","coordinates":[[[22.81,47.15],[22.057,47.675],[21.777,48.368],[20.135,48.337],[18.774,48.507],[17.385,48.281],[16.389,47.789],[16.753,47.15],[16.168,46.466],[17.14,45.888],[18.883,45.997],[20.315,45.626],[21.54,46.059],[22.135,46.609],[22.81,47.15]]]}},{"type":"Feature","properties":{"ISO_A2":"SI","NAME":"Slovenia","in_study":false},"geometry":{"type":"Polygon","coordinates":[[[16.503,46.15],[16.55,46.5],[15.933,46.698],[15.38,46.93],[14.674,46.819],[14.003,46.736],[13.618,46.462],[13.458,46.15],[13.825,45.885],[13.887,45.496],[14.667,45.466],[15.388,45.353],[15.83,45.662],[16.3,45.857],[16.503,46.15]]]}}]}
